      2.10          N: GNSS NAV DATA                        RINEX VERSION / TYPE
fic2rin                                 08/06/2020 00:17:35 PGM / RUN BY / DATE
                                                            END OF HEADER
23 20  8  5 22  0  0.0 3.009196370840e-05 1.273292582482e-11 0.000000000000e+00
    3.900000000000e+01-1.024375000000e+02 4.561975738887e-09-6.961841933804e-01
   -5.321577191353e-06 9.145013755187e-04 6.975606083870e-06 5.153638837814e+03
    3.384000000000e+05-2.235174179077e-08 2.836717000238e+00-5.587935447693e-08
    9.615735606899e-01 2.470312500000e+02 1.681121481823e+00-8.157839806773e-09
   -2.425101015191e-10 1.000000000000e+00 2.117000000000e+03 0.000000000000e+00
    9.600000000000e+01 6.300000000000e+01-8.381903171539e-09 2.950000000000e+02
    3.312000000000e+05 4.000000000000e+00
28 20  8  5 21 59 44.0 6.924769841135e-04-3.865352482535e-12 0.000000000000e+00
    0.000000000000e+00-2.556250000000e+01 3.935521073107e-09 1.866199980571e+00
   -1.428648829460e-06 1.838074484840e-02 9.808689355850e-06 5.153663663864e+03
    3.383840000000e+05 4.041939973831e-07-1.875005366414e-01-1.862645149231e-07
    9.768828272280e-01 1.938750000000e+02-1.401472534122e+00-7.499598102649e-09
   -5.528801725355e-10 1.000000000000e+00 2.117000000000e+03 0.000000000000e+00
    2.400000000000e+00 0.000000000000e+00-1.117587089539e-08 0.000000000000e+00
    3.315900000000e+05 4.000000000000e+00
 2 20  8  5 21 59 44.0-4.979516379535e-04-5.570655048359e-12 0.000000000000e+00
    1.000000000000e+00 4.306250000000e+01 5.045567310988e-09-8.014000207047e-01
    2.497807145119e-06 1.975495356601e-02 2.996996045113e-06 5.153747686386e+03
    3.383840000000e+05-3.147870302200e-07 1.743639294718e+00 1.583248376846e-07
    9.596530359838e-01 3.298125000000e+02-1.612794858648e+00-8.845368445100e-09
    3.432285825624e-10 1.000000000000e+00 2.117000000000e+03 0.000000000000e+00
    2.400000000000e+00 0.000000000000e+00-1.769512891769e-08 1.000000000000e+00
    3.323700000000e+05 4.000000000000e+00
15 20  8  5 21 59 44.0-2.126027829945e-04 2.614797267597e-12 0.000000000000e+00
    0.000000000000e+00-1.868750000000e+01 5.307721087888e-09 2.601446567777e-01
   -6.910413503647e-07 1.252844661940e-02 1.046434044838e-05 5.153729450226e+03
    3.383840000000e+05-4.842877388000e-08-2.482556420920e+00 1.341104507446e-07
    9.285844464009e-01 1.601562500000e+02 8.995998538420e-01-8.483567660360e-09
    1.825076021742e-10 1.000000000000e+00 2.117000000000e+03 0.000000000000e+00
    2.400000000000e+00 0.000000000000e+00-1.071020960808e-08 0.000000000000e+00
    3.327000000000e+05 4.000000000000e+00
19 20  8  5 21 59 44.0-1.223501749337e-04 5.115907697473e-12 0.000000000000e+00
    1.000000000000e+00 1.081562500000e+02 3.715154751108e-09-2.653976804878e+00
    5.528330802917e-06 9.398705209605e-03 9.540468454361e-06 5.153702499390e+03
    3.383840000000e+05 8.940696716309e-08 8.695797712936e-01 6.332993507385e-08
    9.820388161671e-01 1.992812500000e+02 1.688202864060e+00-7.572101122691e-09
    3.371569010811e-10 1.000000000000e+00 2.117000000000e+03 0.000000000000e+00
    2.400000000000e+00 0.000000000000e+00-1.536682248116e-08 1.000000000000e+00
    3.334500000000e+05 4.000000000000e+00
20 20  8  5 21 59 44.0 5.271201953292e-04-1.136868377216e-13 0.000000000000e+00
    1.000000000000e+00-1.019687500000e+02 5.224503335820e-09-1.561505941184e+00
   -5.358830094337e-06 5.420446163043e-03 5.846843123436e-06 5.153663616180e+03
    3.383840000000e+05-4.842877388000e-08 2.725479241802e+00-1.396983861923e-07
    9.350736481765e-01 2.551562500000e+02 2.687851000697e+00-8.550713314388e-09
   -1.807218135032e-10 1.000000000000e+00 2.117000000000e+03 0.000000000000e+00
    2.400000000000e+00 0.000000000000e+00-8.847564458847e-09 1.000000000000e+00
    3.342000000000e+05 4.000000000000e+00
17 20  8  5 21 59 44.0 3.067324869335e-04 5.570655048359e-12 0.000000000000e+00
    6.400000000000e+01 9.628125000000e+01 3.755513575072e-09 1.020225881737e+00
    4.993751645088e-06 1.328520104289e-02 1.021660864353e-05 5.153742650986e+03
    3.383840000000e+05-2.179294824600e-07 8.240567245388e-01-1.173466444016e-07
    9.838137658951e-01 1.926250000000e+02-1.639040415058e+00-7.917829809393e-09
    2.246522148093e-10 1.000000000000e+00 2.117000000000e+03 0.000000000000e+00
    2.400000000000e+00 0.000000000000e+00-1.117587089539e-08 6.400000000000e+01
    3.347100000000e+05 4.000000000000e+00
13 20  8  5 21 59 28.0 3.317324444652e-05 3.410605131648e-12 0.000000000000e+00
    3.000000000000e+00 7.281250000000e+00 4.415898225600e-09 4.437689549754e-01
    5.755573511124e-07 4.301500273868e-03 1.035630702972e-05 5.153665082932e+03
    3.383680000000e+05 6.332993507385e-08-2.247258645057e+00 2.793967723846e-08
    9.679015576707e-01 1.819687500000e+02 1.048208347617e+00-7.967117576712e-09
    3.546576300567e-10 1.000000000000e+00 2.117000000000e+03 0.000000000000e+00
    2.400000000000e+00 0.000000000000e+00-1.117587089539e-08 3.000000000000e+00
    3.357000000000e+05 4.000000000000e+00
11 20  8  5 21 59 44.0-2.008755691350e-04 1.057287590811e-11 0.000000000000e+00
    1.100000000000e+01 1.117187500000e+02 5.677379342781e-09-1.566843176896e+00
    6.074085831642e-06 1.607158244587e-02 4.556030035019e-06 5.153721052170e+03
    3.383840000000e+05-2.514570951462e-07 1.342035044461e+00 2.384185791016e-07
    9.129890038281e-01 2.737500000000e+02 2.019900661039e+00-8.897870632027e-09
    4.393040130612e-10 1.000000000000e+00 2.117000000000e+03 0.000000000000e+00
    2.400000000000e+00 0.000000000000e+00-1.210719347000e-08 1.100000000000e+01
    3.357000000000e+05 4.000000000000e+00
29 20  8  5 21 59 44.0-1.663253642619e-04-8.412825991400e-12 0.000000000000e+00
    5.000000000000e+00 8.937500000000e+01 3.676224558080e-09 1.304556061962e+00
    4.693865776062e-06 1.632993342355e-03 9.441748261452e-06 5.153771745682e+03
    3.383840000000e+05 5.401670932770e-08 8.359339384496e-01-2.048909664154e-08
    9.855060490484e-01 2.099062500000e+02 2.138864157146e+00-7.667105079987e-09
    2.760829285336e-10 1.000000000000e+00 2.117000000000e+03 0.000000000000e+00
    2.400000000000e+00 0.000000000000e+00-1.024454832077e-08 5.000000000000e+00
    3.364800000000e+05 4.000000000000e+00
22 20  8  5 21 59 44.0-7.665669545531e-04 3.069544618484e-12 0.000000000000e+00
    5.300000000000e+01-1.113750000000e+02 5.447012604224e-09 1.600005864952e-01
   -5.818903446198e-06 6.860078196041e-03 6.055459380150e-06 5.153772016525e+03
    3.383840000000e+05-5.215406417847e-08 2.772694486860e+00-2.048909664154e-08
    9.317973948616e-01 2.500000000000e+02-1.110135905251e+00-8.722506184537e-09
   -2.264380034803e-10 1.000000000000e+00 2.117000000000e+03 0.000000000000e+00
    2.400000000000e+00 0.000000000000e+00-1.816079020500e-08 5.300000000000e+01
    3.379500000000e+05 4.000000000000e+00
13 20  8  5 23 59 28.0 3.319792449474e-05 3.410605131648e-12 0.000000000000e+00
    1.800000000000e+01 5.031250000000e+00 4.369467720155e-09 1.493788121608e+00
    3.185123205185e-07 4.302564775571e-03 1.100823283195e-05 5.153667325974e+03
    3.455680000000e+05-1.359730958939e-07-2.247316572224e+00 4.284083843231e-08
    9.679048901980e-01 1.710625000000e+02 1.048373644193e+00-7.872113619416e-09
    5.010923010771e-10 1.000000000000e+00 2.117000000000e+03 0.000000000000e+00
    2.400000000000e+00 0.000000000000e+00-1.117587089539e-08 1.800000000000e+01
    3.384000000000e+05 4.000000000000e+00
 2 20  8  5 23 59 44.0-4.979916848242e-04-5.570655048359e-12 0.000000000000e+00
    6.000000000000e+00 4.496875000000e+01 4.898061166765e-09 2.487457336925e-01
    2.171844244003e-06 1.975519605912e-02 2.607703208923e-06 5.153748229980e+03
    3.455840000000e+05-3.278255462646e-07 1.743575991327e+00-1.080334186554e-07
    9.596553122843e-01 3.290625000000e+02-1.612802228829e+00-8.858940439000e-09
    2.142946405177e-10 1.000000000000e+00 2.117000000000e+03 0.000000000000e+00
    2.400000000000e+00 0.000000000000e+00-1.769512891769e-08 6.000000000000e+00
    3.384000000000e+05 4.000000000000e+00
20 20  8  5 23 59 44.0 5.271192640066e-04-1.136868377216e-13 0.000000000000e+00
    2.000000000000e+00-1.017187500000e+02 5.242361222530e-09-5.115156130556e-01
   -5.351379513741e-06 5.419884924777e-03 5.250796675682e-06 5.153661283493e+03
    3.455840000000e+05 4.470348358154e-08 2.725417522751e+00-1.061707735062e-07
    9.350724968599e-01 2.640312500000e+02 2.688053699700e+00-8.578214459922e-09
   -1.667926618696e-10 1.000000000000e+00 2.117000000000e+03 0.000000000000e+00
    2.400000000000e+00 0.000000000000e+00-8.847564458847e-09 2.000000000000e+00
    3.384000000000e+05 4.000000000000e+00
28 20  8  5 23 59 44.0 6.924495100975e-04-3.865352482535e-12 0.000000000000e+00
    5.000000000000e+00-2.028125000000e+01 3.886947621256e-09 2.916353393345e+00
   -9.555369615555e-07 1.838021061849e-02 9.968876838684e-06 5.153665039062e+03
    3.455840000000e+05 2.514570951462e-07-1.875530919734e-01 4.284083843231e-08
    9.768787310574e-01 1.918750000000e+02-1.401444242749e+00-7.359592270845e-09
   -6.450268679581e-10 1.000000000000e+00 2.117000000000e+03 0.000000000000e+00
    2.400000000000e+00 0.000000000000e+00-1.117587089539e-08 5.000000000000e+00
    3.384000000000e+05 4.000000000000e+00
29 20  8  5 23 59 44.0-1.663859002292e-04-8.412825991400e-12 0.000000000000e+00
    2.500000000000e+01 9.500000000000e+01 3.618007847406e-09 2.354217324224e+00
    5.034729838371e-06 1.632257481106e-03 9.870156645775e-06 5.153773460388e+03
    3.455840000000e+05-4.284083843231e-08 8.358795003420e-01 4.656612873077e-08
    9.855080605607e-01 2.015625000000e+02 2.139317468645e+00-7.588173220730e-09
    2.017941198208e-10 1.000000000000e+00 2.117000000000e+03 0.000000000000e+00
    2.400000000000e+00 0.000000000000e+00-1.024454832077e-08 2.500000000000e+01
    3.384000000000e+05 4.000000000000e+00
